{"type": "FeatureCollection", "features": [ {"type": "Feature", "properties": {"norad_id": 33867, "name": "IRIDIUM 33 DEB", "group": "iridium-33-debris", "lat": 38.74683334488971, "lon": 164.9635284054075, "alt_km": 334.2569158478, "timestamp": "2025-12-16T23:36:36.583014+00:00", "meta": {"OBJECT_NAME": "IRIDIUM 33 DEB", "OBJECT_ID": "1997-051AL", "EPOCH": "2025-12-16T06:14:27.304800", "MEAN_MOTION": 15.74337864, "ECCENTRICITY": 0.00137765, "INCLINATION": 86.3648, "RA_OF_ASC_NODE": 348.2677, "ARG_OF_PERICENTER": 90.5977, "MEAN_ANOMALY": 269.6874, "EPHEMERIS_TYPE": 0, "CLASSIFICATION_TYPE": "U", "NORAD_CAT_ID": 33867, "ELEMENT_SET_NO": 999, "REV_AT_EPOCH": 89566, "BSTAR": 0.0065950969, "MEAN_MOTION_DOT": 0.01055705, "MEAN_MOTION_DDOT": 0}, "tle": {"line1": "1 33867U 97051AL  25350.26003825  .01055705  00000+0  65951-2 0  9990", "line2": "2 33867  86.3648 348.2677 0013776  90.5977 269.6874 15.74337864895666"}}, "geometry": {"type": "Point", "coordinates": [164.9635284054075, 38.74683334488971]}}, {"type": "Feature", "properties": {"norad_id": 33870, "name": "IRIDIUM 33 DEB", "group": "iridium-33-debris", "lat": 81.64925827170242, "lon": 82.02962152706428, "alt_km": 729.5299322877663, "timestamp": "2025-12-16T23:36:36.583025+00:00", "meta": {"OBJECT_NAME": "IRIDIUM 33 DEB", "OBJECT_ID": "1997-051AP", "EPOCH": "2025-12-16T05:12:29.078208", "MEAN_MOTION": 14.45870767, "ECCENTRICITY": 0.00218863, "INCLINATION": 86.3748, "RA_OF_ASC_NODE": 56.7702, "ARG_OF_PERICENTER": 166.7882, "MEAN_ANOMALY": 247.4368, "EPHEMERIS_TYPE": 0, "CLASSIFICATION_TYPE": "U", "NORAD_CAT_ID": 33870, "ELEMENT_SET_NO": 999, "REV_AT_EPOCH": 88187, "BSTAR": 0.00056447211, "MEAN_MOTION_DOT": 2.03e-05, "MEAN_MOTION_DDOT": 0}, "tle": {"line1": "1 33870U 97051AP  25350.21700322  .00002030  00000+0  56447-3 0  9998", "line2": "2 33870  86.3748  56.7702 0021886 166.7882 247.4368 14.45870767881874"}}, "geometry": {"type": "Point", "coordinates": [82.02962152706428, 81.64925827170242]}}, {"type": "Feature", "properties": {"norad_id": 33881, "name": "IRIDIUM 33 DEB", "group": "iridium-33-debris", "lat": 65.15672302355803, "lon": -82.94840990693622, "alt_km": 667.5727466382741, "timestamp": "2025-12-16T23:36:36.583036+00:00", "meta": {"OBJECT_NAME": "IRIDIUM 33 DEB", "OBJECT_ID": "1997-051BA", "EPOCH": "2025-12-16T08:29:45.648384", "MEAN_MOTION": 14.5664163, "ECCENTRICITY": 0.00614536, "INCLINATION": 86.3859, "RA_OF_ASC_NODE": 105.1715, "ARG_OF_PERICENTER": 163.0426, "MEAN_ANOMALY": 251.7518, "EPHEMERIS_TYPE": 0, "CLASSIFICATION_TYPE": "U", "NORAD_CAT_ID": 33881, "ELEMENT_SET_NO": 999, "REV_AT_EPOCH": 87553, "BSTAR": 0.0014018898, "MEAN_MOTION_DOT": 6.438e-05, "MEAN_MOTION_DDOT": 0}, "tle": {"line1": "1 33881U 97051BA  25350.35400056  .00006438  00000+0  14019-2 0  9990", "line2": "2 33881  86.3859 105.1715 0061453 163.0426 251.7518 14.56641630875538"}}, "geometry": {"type": "Point", "coordinates": [-82.94840990693622, 65.15672302355803]}}, {"type": "Feature", "properties": {"norad_id": 33884, "name": "IRIDIUM 33 DEB", "group": "iridium-33-debris", "lat": 19.86495665604154, "lon": 9.21739219400958, "alt_km": 635.4052552517269, "timestamp": "2025-12-16T23:36:36.583046+00:00", "meta": {"OBJECT_NAME": "IRIDIUM 33 DEB", "OBJECT_ID": "1997-051BD", "EPOCH": "2025-12-16T01:01:12.677376", "MEAN_MOTION": 14.77497701, "ECCENTRICITY": 0.00092992, "INCLINATION": 86.3697, "RA_OF_ASC_NODE": 8.3278, "ARG_OF_PERICENTER": 311.0576, "MEAN_ANOMALY": 105.6317, "EPHEMERIS_TYPE": 0, "CLASSIFICATION_TYPE": "U", "NORAD_CAT_ID": 33884, "ELEMENT_SET_NO": 999, "REV_AT_EPOCH": 88896, "BSTAR": 0.00098272184, "MEAN_MOTION_DOT": 7.035e-05, "MEAN_MOTION_DDOT": 0}, "tle": {"line1": "1 33884U 97051BD  25350.04250784  .00007035  00000+0  98272-3 0  9998", "line2": "2 33884  86.3697   8.3278 0009299 311.0576 105.6317 14.77497701888966"}}, "geometry": {"type": "Point", "coordinates": [9.21739219400958, 19.86495665604154]}}, {"type": "Feature", "properties": {"norad_id": 33886, "name": "IRIDIUM 33 DEB", "group": "iridium-33-debris", "lat": 33.585575367445635, "lon": 67.84996400106051, "alt_km": 778.2954307098216, "timestamp": "2025-12-16T23:36:36.583057+00:00", "meta": {"OBJECT_NAME": "IRIDIUM 33 DEB", "OBJECT_ID": "1997-051BF", "EPOCH": "2025-12-16T07:03:18.684864", "MEAN_MOTION": 14.36056304, "ECCENTRICITY": 0.00125718, "INCLINATION": 86.3829, "RA_OF_ASC_NODE": 65.7329, "ARG_OF_PERICENTER": 228.8183, "MEAN_ANOMALY": 201.0809, "EPHEMERIS_TYPE": 0, "CLASSIFICATION_TYPE": "U", "NORAD_CAT_ID": 33886, "ELEMENT_SET_NO": 999, "REV_AT_EPOCH": 88103, "BSTAR": 0.00018278351, "MEAN_MOTION_DOT": 5.51e-06, "MEAN_MOTION_DDOT": 0}, "tle": {"line1": "1 33886U 97051BF  25350.29396626  .00000551  00000+0  18278-3 0  9997", "line2": "2 33886  86.3829  65.7329 0012571 228.8183 201.0809 14.36056304881038"}}, "geometry": {"type": "Point", "coordinates": [67.84996400106051, 33.585575367445635]}}, {"type": "Feature", "properties": {"norad_id": 33887, "name": "IRIDIUM 33 DEB", "group": "iridium-33-debris", "lat": -12.24506648725897, "lon": 0.7596153898953846, "alt_km": 774.7437322230835, "timestamp": "2025-12-16T23:36:36.583067+00:00", "meta": {"OBJECT_NAME": "IRIDIUM 33 DEB", "OBJECT_ID": "1997-051BG", "EPOCH": "2025-12-16T07:01:37.806816", "MEAN_MOTION": 14.37224219, "ECCENTRICITY": 0.0004778, "INCLINATION": 86.3043, "RA_OF_ASC_NODE": 1.861, "ARG_OF_PERICENTER": 211.565, "MEAN_ANOMALY": 163.488, "EPHEMERIS_TYPE": 0, "CLASSIFICATION_TYPE": "U", "NORAD_CAT_ID": 33887, "ELEMENT_SET_NO": 999, "REV_AT_EPOCH": 88216, "BSTAR": 0.00014137146, "MEAN_MOTION_DOT": 4.4e-06, "MEAN_MOTION_DDOT": 0}, "tle": {"line1": "1 33887U 97051BG  25350.29279869  .00000440  00000+0  14137-3 0  9994", "line2": "2 33887  86.3043   1.8610 0004778 211.5650 163.4880 14.37224219882167"}}, "geometry": {"type": "Point", "coordinates": [0.7596153898953846, -12.24506648725897]}}, {"type": "Feature", "properties": {"norad_id": 33953, "name": "IRIDIUM 33 DEB", "group": "iridium-33-debris", "lat": 59.79240326550059, "lon": -134.29658608135233, "alt_km": 691.2974868534311, "timestamp": "2025-12-16T23:36:36.583078+00:00", "meta": {"OBJECT_NAME": "IRIDIUM 33 DEB", "OBJECT_ID": "1997-051BN", "EPOCH": "2025-12-16T05:10:47.996256", "MEAN_MOTION": 14.55360619, "ECCENTRICITY": 0.00182387, "INCLINATION": 86.3848, "RA_OF_ASC_NODE": 52.2709, "ARG_OF_PERICENTER": 92.3445, "MEAN_ANOMALY": 326.7114, "EPHEMERIS_TYPE": 0, "CLASSIFICATION_TYPE": "U", "NORAD_CAT_ID": 33953, "ELEMENT_SET_NO": 999, "REV_AT_EPOCH": 88354, "BSTAR": 0.00077913405, "MEAN_MOTION_DOT": 3.408e-05, "MEAN_MOTION_DDOT": 0}, "tle": {"line1": "1 33953U 97051BN  25350.21583329  .00003408  00000+0  77913-3 0  9997", "line2": "2 33953  86.3848  52.2709 0018238  92.3445 326.7114 14.55360619883548"}}, "geometry": {"type": "Point", "coordinates": [-134.29658608135233, 59.79240326550059]}}, {"type": "Feature", "properties": {"norad_id": 33960, "name": "IRIDIUM 33 DEB", "group": "iridium-33-debris", "lat": 21.05139076115333, "lon": -71.04202952226748, "alt_km": 607.9348669717228, "timestamp": "2025-12-16T23:36:36.583089+00:00", "meta": {"OBJECT_NAME": "IRIDIUM 33 DEB", "OBJECT_ID": "1997-051BV", "EPOCH": "2025-12-16T07:53:48.198912", "MEAN_MOTION": 14.8537935, "ECCENTRICITY": 0.00074933, "INCLINATION": 86.2531, "RA_OF_ASC_NODE": 287.8214, "ARG_OF_PERICENTER": 56.3279, "MEAN_ANOMALY": 66.1486, "EPHEMERIS_TYPE": 0, "CLASSIFICATION_TYPE": "U", "NORAD_CAT_ID": 33960, "ELEMENT_SET_NO": 999, "REV_AT_EPOCH": 88920, "BSTAR": 0.0022914267, "MEAN_MOTION_DOT": 0.00019787, "MEAN_MOTION_DDOT": 0}, "tle": {"line1": "1 33960U 97051BV  25350.32903008  .00019787  00000+0  22914-2 0  9994", "line2": "2 33960  86.2531 287.8214 0007493  56.3279  66.1486 14.85379350889208"}}, "geometry": {"type": "Point", "coordinates": [-71.04202952226748, 21.05139076115333]}}, {"type": "Feature", "properties": {"norad_id": 33966, "name": "IRIDIUM 33 DEB", "group": "iridium-33-debris", "lat": 21.64374380741494, "lon": -137.22803054457097, "alt_km": 721.4585235553941, "timestamp": "2025-12-16T23:36:36.583099+00:00", "meta": {"OBJECT_NAME": "IRIDIUM 33 DEB", "OBJECT_ID": "1997-051CB", "EPOCH": "2025-12-16T04:55:59.392992", "MEAN_MOTION": 14.49608767, "ECCENTRICITY": 0.00078351, "INCLINATION": 86.3927, "RA_OF_ASC_NODE": 44.5402, "ARG_OF_PERICENTER": 176.7989, "MEAN_ANOMALY": 242.8784, "EPHEMERIS_TYPE": 0, "CLASSIFICATION_TYPE": "U", "NORAD_CAT_ID": 33966, "ELEMENT_SET_NO": 999, "REV_AT_EPOCH": 88492, "BSTAR": 0.00040050958, "MEAN_MOTION_DOT": 1.558e-05, "MEAN_MOTION_DDOT": 0}, "tle": {"line1": "1 33966U 97051CB  25350.20554853  .00001558  00000+0  40051-3 0  9997", "line2": "2 33966  86.3927  44.5402 0007835 176.7989 242.8784 14.49608767884921"}}, "geometry": {"type": "Point", "coordinates": [-137.22803054457097, 21.64374380741494]}}, {"type": "Feature", "properties": {"norad_id": 34071, "name": "IRIDIUM 33 DEB", "group": "iridium-33-debris", "lat": -42.735263893727186, "lon": -160.6307399357505, "alt_km": 738.3285186736139, "timestamp": "2025-12-16T23:36:36.583109+00:00", "meta": {"OBJECT_NAME": "IRIDIUM 33 DEB", "OBJECT_ID": "1997-051CE", "EPOCH": "2025-12-16T02:42:16.557696", "MEAN_MOTION": 14.49480462, "ECCENTRICITY": 0.00099956, "INCLINATION": 86.3456, "RA_OF_ASC_NODE": 16.3626, "ARG_OF_PERICENTER": 98.6958, "MEAN_ANOMALY": 261.5379, "EPHEMERIS_TYPE": 0, "CLASSIFICATION_TYPE": "U", "NORAD_CAT_ID": 34071, "ELEMENT_SET_NO": 999, "REV_AT_EPOCH": 88383, "BSTAR": 0.00045241306, "MEAN_MOTION_DOT": 1.753e-05, "MEAN_MOTION_DDOT": 0}, "tle": {"line1": "1 34071U 97051CE  25350.11269164  .00001753  00000+0  45241-3 0  9996", "line2": "2 34071  86.3456  16.3626 0009995  98.6958 261.5379 14.49480462883835"}}, "geometry": {"type": "Point", "coordinates": [-160.6307399357505, -42.735263893727186]}}]}